[{"OBJECT_NAME":"SHIYAN-28B 01","OBJECT_ID":"2025-145A","EPOCH":"2026-03-08T20:29:47.684832","MEAN_MOTION":14.29356521,"ECCENTRICITY":0.00033669,"INCLINATION":10.9981,"RA_OF_ASC_NODE":260.401,"ARG_OF_PERICENTER":306.4747,"MEAN_ANOMALY":53.517,"EPHEMERIS_TYPE":0,"CLASSIFICATION_TYPE":"U","NORAD_CAT_ID":64753,"ELEMENT_SET_NO":999,"REV_AT_EPOCH":3553,"BSTAR":0.00013091269,"MEAN_MOTION_DOT":7.71e-6,"MEAN_MOTION_DDOT":0},{"OBJECT_NAME":"NOAA 11 DEB","OBJECT_ID":"1988-089D","EPOCH":"2026-03-09T22:51:08.540352","MEAN_MOTION":14.28414198,"ECCENTRICITY":0.00224327,"INCLINATION":98.9576,"RA_OF_ASC_NODE":243.012,"ARG_OF_PERICENTER":133.3739,"MEAN_ANOMALY":226.9315,"EPHEMERIS_TYPE":0,"CLASSIFICATION_TYPE":"U","NORAD_CAT_ID":37241,"ELEMENT_SET_NO":999,"REV_AT_EPOCH":93829,"BSTAR":0.00036587981,"MEAN_MOTION_DOT":8.71e-6,"MEAN_MOTION_DDOT":0}]
